{"type": "FeatureCollection", "features": [ {"type": "Feature", "properties": {"norad_id": 32384, "name": "GPS BIIRM-5 (PRN 29)", "group": "gps-ops", "lat": 45.16021608301212, "lon": 57.708724559353264, "alt_km": 20112.57424212772, "timestamp": "2025-12-02T06:27:53.272716+00:00", "meta": {"OBJECT_NAME": "GPS BIIRM-5 (PRN 29)", "OBJECT_ID": "2007-062A", "EPOCH": "2025-11-30T01:46:38.777952", "MEAN_MOTION": 2.0057652, "ECCENTRICITY": 0.00321996, "INCLINATION": 55.1935, "RA_OF_ASC_NODE": 282.1541, "ARG_OF_PERICENTER": 162.9568, "MEAN_ANOMALY": 172.309, "EPHEMERIS_TYPE": 0, "CLASSIFICATION_TYPE": "U", "NORAD_CAT_ID": 32384, "ELEMENT_SET_NO": 999, "REV_AT_EPOCH": 13151, "BSTAR": 0, "MEAN_MOTION_DOT": -3.9e-07, "MEAN_MOTION_DDOT": 0}, "tle": {"line1": "1 32384U 07062A   25334.07405993 -.00000039  00000+0  00000+0 0  9990", "line2": "2 32384  55.1935 282.1541 0032199 162.9568 172.3090  2.00576520131514"}}, "geometry": {"type": "Point", "coordinates": [57.708724559353264, 45.16021608301212]}}, {"type": "Feature", "properties": {"norad_id": 32711, "name": "GPS BIIRM-6 (PRN 07)", "group": "gps-ops", "lat": 35.80575389900916, "lon": -171.17517527804998, "alt_km": 20684.541037610186, "timestamp": "2025-12-02T06:27:53.272727+00:00", "meta": {"OBJECT_NAME": "GPS BIIRM-6 (PRN 07)", "OBJECT_ID": "2008-012A", "EPOCH": "2025-12-01T16:55:34.250592", "MEAN_MOTION": 2.00564991, "ECCENTRICITY": 0.0202013, "INCLINATION": 54.4753, "RA_OF_ASC_NODE": 157.8135, "ARG_OF_PERICENTER": 244.8275, "MEAN_ANOMALY": 113.1101, "EPHEMERIS_TYPE": 0, "CLASSIFICATION_TYPE": "U", "NORAD_CAT_ID": 32711, "ELEMENT_SET_NO": 999, "REV_AT_EPOCH": 12979, "BSTAR": 0, "MEAN_MOTION_DOT": 1.24e-06, "MEAN_MOTION_DDOT": 0}, "tle": {"line1": "1 32711U 08012A   25335.70525753  .00000124  00000+0  00000+0 0  9992", "line2": "2 32711  54.4753 157.8135 0202013 244.8275 113.1101  2.00564991129796"}}, "geometry": {"type": "Point", "coordinates": [-171.17517527804998, 35.80575389900916]}}, {"type": "Feature", "properties": {"norad_id": 35752, "name": "GPS BIIRM-8 (PRN 05)", "group": "gps-ops", "lat": 48.83236015916391, "lon": 85.4412590500266, "alt_km": 20043.67418756194, "timestamp": "2025-12-02T06:27:53.272738+00:00", "meta": {"OBJECT_NAME": "GPS BIIRM-8 (PRN 05)", "OBJECT_ID": "2009-043A", "EPOCH": "2025-12-01T04:42:32.815296", "MEAN_MOTION": 2.00566259, "ECCENTRICITY": 0.00521242, "INCLINATION": 56.0822, "RA_OF_ASC_NODE": 35.2386, "ARG_OF_PERICENTER": 82.0997, "MEAN_ANOMALY": 288.3285, "EPHEMERIS_TYPE": 0, "CLASSIFICATION_TYPE": "U", "NORAD_CAT_ID": 35752, "ELEMENT_SET_NO": 999, "REV_AT_EPOCH": 11939, "BSTAR": 0, "MEAN_MOTION_DOT": -6.6e-07, "MEAN_MOTION_DDOT": 0}, "tle": {"line1": "1 35752U 09043A   25335.19621314 -.00000066  00000+0  00000+0 0  9994", "line2": "2 35752  56.0822  35.2386 0052124  82.0997 288.3285  2.00566259119397"}}, "geometry": {"type": "Point", "coordinates": [85.4412590500266, 48.83236015916391]}}, {"type": "Feature", "properties": {"norad_id": 36585, "name": "GPS BIIF-1  (PRN 25)", "group": "gps-ops", "lat": -4.312787158704232, "lon": 39.60652267222794, "alt_km": 20349.569712210432, "timestamp": "2025-12-02T06:27:53.272750+00:00", "meta": {"OBJECT_NAME": "GPS BIIF-1  (PRN 25)", "OBJECT_ID": "2010-022A", "EPOCH": "2025-12-01T06:27:39.458016", "MEAN_MOTION": 2.00552516, "ECCENTRICITY": 0.0125618, "INCLINATION": 54.3025, "RA_OF_ASC_NODE": 216.5366, "ARG_OF_PERICENTER": 64.9463, "MEAN_ANOMALY": 117.0243, "EPHEMERIS_TYPE": 0, "CLASSIFICATION_TYPE": "U", "NORAD_CAT_ID": 36585, "ELEMENT_SET_NO": 999, "REV_AT_EPOCH": 11362, "BSTAR": 0, "MEAN_MOTION_DOT": 6e-07, "MEAN_MOTION_DDOT": 0}, "tle": {"line1": "1 36585U 10022A   25335.26920669  .00000060  00000+0  00000+0 0  9994", "line2": "2 36585  54.3025 216.5366 0125618  64.9463 117.0243  2.00552516113629"}}, "geometry": {"type": "Point", "coordinates": [39.60652267222794, -4.312787158704232]}}, {"type": "Feature", "properties": {"norad_id": 38833, "name": "GPS BIIF-3  (PRN 24)", "group": "gps-ops", "lat": -52.3905902941479, "lon": 77.99080916721314, "alt_km": 20562.187133643998, "timestamp": "2025-12-02T06:27:53.272761+00:00", "meta": {"OBJECT_NAME": "GPS BIIF-3  (PRN 24)", "OBJECT_ID": "2012-053A", "EPOCH": "2025-11-30T21:15:05.262912", "MEAN_MOTION": 2.00564831, "ECCENTRICITY": 0.01754484, "INCLINATION": 53.5557, "RA_OF_ASC_NODE": 151.7243, "ARG_OF_PERICENTER": 63.8273, "MEAN_ANOMALY": 298.0063, "EPHEMERIS_TYPE": 0, "CLASSIFICATION_TYPE": "U", "NORAD_CAT_ID": 38833, "ELEMENT_SET_NO": 999, "REV_AT_EPOCH": 9546, "BSTAR": 0, "MEAN_MOTION_DOT": 1.23e-06, "MEAN_MOTION_DDOT": 0}, "tle": {"line1": "1 38833U 12053A   25334.88547758  .00000123  00000+0  00000+0 0  9999", "line2": "2 38833  53.5557 151.7243 0175448  63.8273 298.0063  2.00564831 95469"}}, "geometry": {"type": "Point", "coordinates": [77.99080916721314, -52.3905902941479]}}, {"type": "Feature", "properties": {"norad_id": 39166, "name": "GPS BIIF-4  (PRN 27)", "group": "gps-ops", "lat": 14.5480137624876, "lon": -72.42978420744679, "alt_km": 19865.92411692927, "timestamp": "2025-12-02T06:27:53.272771+00:00", "meta": {"OBJECT_NAME": "GPS BIIF-4  (PRN 27)", "OBJECT_ID": "2013-023A", "EPOCH": "2025-12-01T05:56:59.212320", "MEAN_MOTION": 2.00565063, "ECCENTRICITY": 0.0137183, "INCLINATION": 54.6621, "RA_OF_ASC_NODE": 277.0355, "ARG_OF_PERICENTER": 48.4881, "MEAN_ANOMALY": 312.6778, "EPHEMERIS_TYPE": 0, "CLASSIFICATION_TYPE": "U", "NORAD_CAT_ID": 39166, "ELEMENT_SET_NO": 999, "REV_AT_EPOCH": 9191, "BSTAR": 0, "MEAN_MOTION_DOT": -4e-07, "MEAN_MOTION_DDOT": 0}, "tle": {"line1": "1 39166U 13023A   25335.24790755 -.00000040  00000+0  00000+0 0  9994", "line2": "2 39166  54.6621 277.0355 0137183  48.4881 312.6778  2.00565063 91917"}}, "geometry": {"type": "Point", "coordinates": [-72.42978420744679, 14.5480137624876]}}, {"type": "Feature", "properties": {"norad_id": 39533, "name": "GPS BIIF-5  (PRN 30)", "group": "gps-ops", "lat": 16.903861436104382, "lon": 170.2956336153014, "alt_km": 20368.6289497278, "timestamp": "2025-12-02T06:27:53.272782+00:00", "meta": {"OBJECT_NAME": "GPS BIIF-5  (PRN 30)", "OBJECT_ID": "2014-008A", "EPOCH": "2025-11-29T05:57:39.103200", "MEAN_MOTION": 2.00573621, "ECCENTRICITY": 0.00788834, "INCLINATION": 53.629, "RA_OF_ASC_NODE": 157.4751, "ARG_OF_PERICENTER": 226.3092, "MEAN_ANOMALY": 133.082, "EPHEMERIS_TYPE": 0, "CLASSIFICATION_TYPE": "U", "NORAD_CAT_ID": 39533, "ELEMENT_SET_NO": 999, "REV_AT_EPOCH": 8567, "BSTAR": 0, "MEAN_MOTION_DOT": 1.23e-06, "MEAN_MOTION_DDOT": 0}, "tle": {"line1": "1 39533U 14008A   25333.24836925  .00000123  00000+0  00000+0 0  9995", "line2": "2 39533  53.6290 157.4751 0078883 226.3092 133.0820  2.00573621 85677"}}, "geometry": {"type": "Point", "coordinates": [170.2956336153014, 16.903861436104382]}}, {"type": "Feature", "properties": {"norad_id": 39741, "name": "GPS BIIF-6  (PRN 06)", "group": "gps-ops", "lat": 2.516120146125381, "lon": 157.52366883371994, "alt_km": 20262.355344982192, "timestamp": "2025-12-02T06:27:53.272793+00:00", "meta": {"OBJECT_NAME": "GPS BIIF-6  (PRN 06)", "OBJECT_ID": "2014-026A", "EPOCH": "2025-12-01T00:37:56.787744", "MEAN_MOTION": 2.00562013, "ECCENTRICITY": 0.00388586, "INCLINATION": 56.588, "RA_OF_ASC_NODE": 339.2323, "ARG_OF_PERICENTER": 318.0747, "MEAN_ANOMALY": 41.6609, "EPHEMERIS_TYPE": 0, "CLASSIFICATION_TYPE": "U", "NORAD_CAT_ID": 39741, "ELEMENT_SET_NO": 999, "REV_AT_EPOCH": 8456, "BSTAR": 0, "MEAN_MOTION_DOT": -5.2e-07, "MEAN_MOTION_DDOT": 0}, "tle": {"line1": "1 39741U 14026A   25335.02635171 -.00000052  00000+0  00000+0 0  9996", "line2": "2 39741  56.5880 339.2323 0038858 318.0747  41.6609  2.00562013 84563"}}, "geometry": {"type": "Point", "coordinates": [157.52366883371994, 2.516120146125381]}}, {"type": "Feature", "properties": {"norad_id": 40105, "name": "GPS BIIF-7  (PRN 09)", "group": "gps-ops", "lat": 48.527724616412904, "lon": -135.47419887964003, "alt_km": 20088.593543238774, "timestamp": "2025-12-02T06:27:53.272804+00:00", "meta": {"OBJECT_NAME": "GPS BIIF-7  (PRN 09)", "OBJECT_ID": "2014-045A", "EPOCH": "2025-12-01T02:44:59.047584", "MEAN_MOTION": 2.00571745, "ECCENTRICITY": 0.0032948, "INCLINATION": 55.2216, "RA_OF_ASC_NODE": 96.3629, "ARG_OF_PERICENTER": 119.5842, "MEAN_ANOMALY": 240.7262, "EPHEMERIS_TYPE": 0, "CLASSIFICATION_TYPE": "U", "NORAD_CAT_ID": 40105, "ELEMENT_SET_NO": 999, "REV_AT_EPOCH": 8210, "BSTAR": 0, "MEAN_MOTION_DOT": 1.8e-07, "MEAN_MOTION_DDOT": 0}, "tle": {"line1": "1 40105U 14045A   25335.11457231  .00000018  00000+0  00000+0 0  9993", "line2": "2 40105  55.2216  96.3629 0032948 119.5842 240.7262  2.00571745 82109"}}, "geometry": {"type": "Point", "coordinates": [-135.47419887964003, 48.527724616412904]}}, {"type": "Feature", "properties": {"norad_id": 40294, "name": "GPS BIIF-8  (PRN 03)", "group": "gps-ops", "lat": -19.601460821172868, "lon": -127.99149517133193, "alt_km": 20297.207753073915, "timestamp": "2025-12-02T06:27:53.272815+00:00", "meta": {"OBJECT_NAME": "GPS BIIF-8  (PRN 03)", "OBJECT_ID": "2014-068A", "EPOCH": "2025-11-30T11:50:19.709088", "MEAN_MOTION": 2.00564008, "ECCENTRICITY": 0.0060843, "INCLINATION": 56.8481, "RA_OF_ASC_NODE": 38.6199, "ARG_OF_PERICENTER": 69.4521, "MEAN_ANOMALY": 291.2475, "EPHEMERIS_TYPE": 0, "CLASSIFICATION_TYPE": "U", "NORAD_CAT_ID": 40294, "ELEMENT_SET_NO": 999, "REV_AT_EPOCH": 8122, "BSTAR": 0, "MEAN_MOTION_DOT": -6.3e-07, "MEAN_MOTION_DDOT": 0}, "tle": {"line1": "1 40294U 14068A   25334.49328367 -.00000063  00000+0  00000+0 0  9995", "line2": "2 40294  56.8481  38.6199 0060843  69.4521 291.2475  2.00564008 81225"}}, "geometry": {"type": "Point", "coordinates": [-127.99149517133193, -19.601460821172868]}}]}